{
  "type": "FeatureCollection",
  "features": [
    {
      "type": "Feature",
      "properties": {
        "norad_id": 66877,
        "name": "ZQ-3 R/B",
        "group": "last-30-days",
        "lat": -0.25920093628994206,
        "lon": -156.93556794017297,
        "alt_km": 335.76701681908526,
        "timestamp": "2025-12-21T16:47:53.450911+00:00",
        "meta_object_name": "ZQ-3 R/B",
        "meta_object_id": "2025-282A",
        "meta_epoch": "2025-12-21T11:03:12.671712",
        "meta_mean_motion": 14.77070822,
        "meta_eccentricity": 0.0706353,
        "meta_inclination": 56.9491,
        "meta_ra_of_asc_node": 23.8366,
        "meta_arg_of_pericenter": 235.2806,
        "meta_mean_anomaly": 117.9737,
        "meta_ephemeris_type": 0,
        "meta_classification_type": "U",
        "meta_norad_cat_id": 66877,
        "meta_element_set_no": 999,
        "meta_rev_at_epoch": 267,
        "meta_bstar": 0.0001683,
        "meta_mean_motion_dot": 0.00946982,
        "meta_mean_motion_ddot": 7.7912e-06,
        "tle_line1": "1 66877U 25282A   25355.46056333  .00946982  77912-5  16830-3 0  9993",
        "tle_line2": "2 66877  56.9491  23.8366 0706353 235.2806 117.9737 14.77070822  2676"
      },
      "geometry": {
        "type": "Point",
        "coordinates": [
          -156.93556794017297,
          -0.25920093628994206
        ]
      }
    },
    {
      "type": "Feature",
      "properties": {
        "norad_id": 66878,
        "name": "STARLINK-35866",
        "group": "last-30-days",
        "lat": 11.534582636141202,
        "lon": -159.8503435836495,
        "alt_km": 346.0088194111404,
        "timestamp": "2025-12-21T16:47:53.450922+00:00",
        "meta_object_name": "STARLINK-35866",
        "meta_object_id": "2025-283A",
        "meta_epoch": "2025-12-21T12:00:02.000160",
        "meta_mean_motion": 15.74200917,
        "meta_eccentricity": 0.0001026,
        "meta_inclination": 53.1578,
        "meta_ra_of_asc_node": 29.9439,
        "meta_arg_of_pericenter": 92.8641,
        "meta_mean_anomaly": 19.0364,
        "meta_ephemeris_type": 0,
        "meta_classification_type": "U",
        "meta_norad_cat_id": 66878,
        "meta_element_set_no": 999,
        "meta_rev_at_epoch": 383,
        "meta_bstar": -0.00016635,
        "meta_mean_motion_dot": -0.00024932,
        "meta_mean_motion_ddot": 0,
        "tle_line1": "1 66878U 25283A   25355.50002315 -.00024932  00000+0 -16635-3 0  9996",
        "tle_line2": "2 66878  53.1578  29.9439 0001026  92.8641  19.0364 15.74200917  3834"
      },
      "geometry": {
        "type": "Point",
        "coordinates": [
          -159.8503435836495,
          11.534582636141202
        ]
      }
    },
    {
      "type": "Feature",
      "properties": {
        "norad_id": 66879,
        "name": "STARLINK-35749",
        "group": "last-30-days",
        "lat": 8.491717737326523,
        "lon": -157.483871243852,
        "alt_km": 346.56776997614634,
        "timestamp": "2025-12-21T16:47:53.450933+00:00",
        "meta_object_name": "STARLINK-35749",
        "meta_object_id": "2025-283B",
        "meta_epoch": "2025-12-21T12:00:02.000160",
        "meta_mean_motion": 15.74203692,
        "meta_eccentricity": 0.0001111,
        "meta_inclination": 53.1575,
        "meta_ra_of_asc_node": 29.9361,
        "meta_arg_of_pericenter": 86.161,
        "meta_mean_anomaly": 29.5713,
        "meta_ephemeris_type": 0,
        "meta_classification_type": "U",
        "meta_norad_cat_id": 66879,
        "meta_element_set_no": 999,
        "meta_rev_at_epoch": 383,
        "meta_bstar": -0.00016903,
        "meta_mean_motion_dot": -0.00025325,
        "meta_mean_motion_ddot": 0,
        "tle_line1": "1 66879U 25283B   25355.50002315 -.00025325  00000+0 -16903-3 0  9992",
        "tle_line2": "2 66879  53.1575  29.9361 0001111  86.1610  29.5713 15.74203692  3830"
      },
      "geometry": {
        "type": "Point",
        "coordinates": [
          -157.483871243852,
          8.491717737326523
        ]
      }
    },
    {
      "type": "Feature",
      "properties": {
        "norad_id": 66880,
        "name": "STARLINK-35844",
        "group": "last-30-days",
        "lat": 10.01540405885734,
        "lon": -158.66113361663056,
        "alt_km": 346.3531066446294,
        "timestamp": "2025-12-21T16:47:53.450943+00:00",
        "meta_object_name": "STARLINK-35844",
        "meta_object_id": "2025-283C",
        "meta_epoch": "2025-12-21T12:00:02.000160",
        "meta_mean_motion": 15.74188857,
        "meta_eccentricity": 0.0001144,
        "meta_inclination": 53.1577,
        "meta_ra_of_asc_node": 29.9405,
        "meta_arg_of_pericenter": 84.3946,
        "meta_mean_anomaly": 29.4265,
        "meta_ephemeris_type": 0,
        "meta_classification_type": "U",
        "meta_norad_cat_id": 66880,
        "meta_element_set_no": 999,
        "meta_rev_at_epoch": 383,
        "meta_bstar": 6.701e-06,
        "meta_mean_motion_dot": 3.52e-06,
        "meta_mean_motion_ddot": 0,
        "tle_line1": "1 66880U 25283C   25355.50002315  .00000352  00000+0  67010-5 0  9992",
        "tle_line2": "2 66880  53.1577  29.9405 0001144  84.3946  29.4265 15.74188857  3837"
      },
      "geometry": {
        "type": "Point",
        "coordinates": [
          -158.66113361663056,
          10.01540405885734
        ]
      }
    },
    {
      "type": "Feature",
      "properties": {
        "norad_id": 66881,
        "name": "STARLINK-35860",
        "group": "last-30-days",
        "lat": 6.968309757433104,
        "lon": -156.31841246822674,
        "alt_km": 346.75099559882165,
        "timestamp": "2025-12-21T16:47:53.450953+00:00",
        "meta_object_name": "STARLINK-35860",
        "meta_object_id": "2025-283D",
        "meta_epoch": "2025-12-21T12:00:02.000160",
        "meta_mean_motion": 15.74190055,
        "meta_eccentricity": 0.0001054,
        "meta_inclination": 53.1574,
        "meta_ra_of_asc_node": 29.9321,
        "meta_arg_of_pericenter": 92.8844,
        "meta_mean_anomaly": 24.7688,
        "meta_ephemeris_type": 0,
        "meta_classification_type": "U",
        "meta_norad_cat_id": 66881,
        "meta_element_set_no": 999,
        "meta_rev_at_epoch": 383,
        "meta_bstar": -2.9906e-05,
        "meta_mean_motion_dot": -5.006e-05,
        "meta_mean_motion_ddot": 0,
        "tle_line1": "1 66881U 25283D   25355.50002315 -.00005006  00000+0 -29906-4 0  9997",
        "tle_line2": "2 66881  53.1574  29.9321 0001054  92.8844  24.7688 15.74190055  3833"
      },
      "geometry": {
        "type": "Point",
        "coordinates": [
          -156.31841246822674,
          6.968309757433104
        ]
      }
    },
    {
      "type": "Feature",
      "properties": {
        "norad_id": 66882,
        "name": "STARLINK-35912",
        "group": "last-30-days",
        "lat": 5.437270387362565,
        "lon": -155.15638711198588,
        "alt_km": 347.2252638304117,
        "timestamp": "2025-12-21T16:47:53.450965+00:00",
        "meta_object_name": "STARLINK-35912",
        "meta_object_id": "2025-283E",
        "meta_epoch": "2025-12-21T12:00:02.000160",
        "meta_mean_motion": 15.74195094,
        "meta_eccentricity": 0.0001089,
        "meta_inclination": 53.1575,
        "meta_ra_of_asc_node": 29.9286,
        "meta_arg_of_pericenter": 75.1529,
        "meta_mean_anomaly": 44.4189,
        "meta_ephemeris_type": 0,
        "meta_classification_type": "U",
        "meta_norad_cat_id": 66882,
        "meta_element_set_no": 999,
        "meta_rev_at_epoch": 383,
        "meta_bstar": -0.00019682,
        "meta_mean_motion_dot": -0.00029361,
        "meta_mean_motion_ddot": 0,
        "tle_line1": "1 66882U 25283E   25355.50002315 -.00029361  00000+0 -19682-3 0  9997",
        "tle_line2": "2 66882  53.1575  29.9286 0001089  75.1529  44.4189 15.74195094  3830"
      },
      "geometry": {
        "type": "Point",
        "coordinates": [
          -155.15638711198588,
          5.437270387362565
        ]
      }
    },
    {
      "type": "Feature",
      "properties": {
        "norad_id": 66883,
        "name": "STARLINK-35947",
        "group": "last-30-days",
        "lat": 3.9076635956495624,
        "lon": -154.0032534788062,
        "alt_km": 347.3592795235445,
        "timestamp": "2025-12-21T16:47:53.450976+00:00",
        "meta_object_name": "STARLINK-35947",
        "meta_object_id": "2025-283F",
        "meta_epoch": "2025-12-21T12:00:02.000160",
        "meta_mean_motion": 15.7419508,
        "meta_eccentricity": 0.0001035,
        "meta_inclination": 53.1576,
        "meta_ra_of_asc_node": 29.9249,
        "meta_arg_of_pericenter": 81.5643,
        "meta_mean_anomaly": 39.9202,
        "meta_ephemeris_type": 0,
        "meta_classification_type": "U",
        "meta_norad_cat_id": 66883,
        "meta_element_set_no": 999,
        "meta_rev_at_epoch": 388,
        "meta_bstar": -6.9712e-05,
        "meta_mean_motion_dot": -0.00010828,
        "meta_mean_motion_ddot": 0,
        "tle_line1": "1 66883U 25283F   25355.50002315 -.00010828  00000+0 -69712-4 0  9996",
        "tle_line2": "2 66883  53.1576  29.9249 0001035  81.5643  39.9202 15.74195080  3885"
      },
      "geometry": {
        "type": "Point",
        "coordinates": [
          -154.0032534788062,
          3.9076635956495624
        ]
      }
    }
  ]
}